QIANFAN-57              
1 62787U 25016C   25353.71317413  .00000144  00000+0  20472-3 0  9995
2 62787  88.9788 102.4805 0002452 116.7485 243.3917 13.50978482 48148
QIANFAN-58              
1 62788U 25016D   25353.68435252  .00000141  00000+0  19924-3 0  9991
2 62788  88.9758 102.3130 0012500 327.7290  32.3095 13.50980352 48185
QIANFAN-59              
1 62789U 25016E   25353.63493993  .00000141  00000+0  19928-3 0  9997
2 62789  88.9781 102.3934 0012958 331.9760  28.0692 13.50981833 48179
QIANFAN-60              
1 62790U 25016F   25353.74204214  .00000046  00000+0  53084-4 0  9993
2 62790  88.9763 102.3525 0014348 327.2295  32.7965 13.50985377 48175
QIANFAN-61              
1 62791U 25016G   25353.77484718  .00000143  00000+0  20226-3 0  9995
2 62791  88.9829 102.5168 0013329 326.8076  33.2238 13.50982257 48199
QIANFAN-62              
1 62792U 25016H   25353.77897826  .00000145  00000+0  20560-3 0  9997
2 62792  88.9776 102.3810 0014718 326.7653  33.2572 13.50978780 48182
QIANFAN-63              
1 62793U 25016J   25353.65552889  .00000133  00000+0  18704-3 0  9996
2 62793  88.9783 102.3457 0014890 332.9337  27.1036 13.50985462 48202
QIANFAN-64              
1 62794U 25016K   25353.62259653  .00000135  00000+0  19064-3 0  9999
2 62794  88.9769 102.3222 0012694 325.9973  34.0364 13.50980512 48195
